[{"OBJECT_NAME":"KUIPER-00119","OBJECT_ID":"2025-171Z","EPOCH":"2026-03-09T13:41:23.129376","MEAN_MOTION":14.80048396,"ECCENTRICITY":7.9e-5,"INCLINATION":51.8996,"RA_OF_ASC_NODE":163.6949,"ARG_OF_PERICENTER":154.2212,"MEAN_ANOMALY":205.8789,"EPHEMERIS_TYPE":0,"CLASSIFICATION_TYPE":"U","NORAD_CAT_ID":65155,"ELEMENT_SET_NO":999,"REV_AT_EPOCH":3279,"BSTAR":0.0007766,"MEAN_MOTION_DOT":5.72e-5,"MEAN_MOTION_DDOT":0},{"OBJECT_NAME":"SL-8 DEB","OBJECT_ID":"1965-020AH","EPOCH":"2026-03-09T21:20:25.012032","MEAN_MOTION":15.12110764,"ECCENTRICITY":0.01461339,"INCLINATION":55.8593,"RA_OF_ASC_NODE":285.3244,"ARG_OF_PERICENTER":198.731,"MEAN_ANOMALY":160.8307,"EPHEMERIS_TYPE":0,"CLASSIFICATION_TYPE":"U","NORAD_CAT_ID":1392,"ELEMENT_SET_NO":999,"REV_AT_EPOCH":8107,"BSTAR":0.0016215192,"MEAN_MOTION_DOT":0.00036476,"MEAN_MOTION_DDOT":0}]
